{"type":"FeatureCollection","metadata":{"description":"Yelp Open Dataset activity regions used by v05","sources":["Natural Earth admin-1 public domain","Government of Alberta Open Government Licence"]},"features":[{"type":"Feature","properties":{"region":"ID","name":"Idaho","country":"US","source":"Natural Earth"},"geometry":{"type":"Polygon","coordinates":[[[-111.04972774945814,44.48816335710761],[-111.05024451378105,42.00159678808724],[-114.03422258182684,41.99312185319137],[-117.0282517159534,42.000020656902336],[-117.0139631824247,43.79706858985223],[-116.92665585006759,44.0812114528091],[-117.0076069812528,44.21141022396847],[-117.19439144577179,44.27913218848698],[-117.19229855026396,44.4389415553496],[-117.0515319487009,44.66595612240779],[-116.83614457890837,44.86385101986953],[-116.69328508183749,45.186647854180706],[-116.55887468144633,45.444358222020284],[-116.45779557988342,45.57453115496351],[-116.51125484908937,45.726408189469325],[-116.67899654830879,45.807359320654555],[-116.91500281458576,45.99998322202251],[-116.9065278796899,46.177775987322704],[-116.99807267949495,46.33016978615143],[-117.02664974655237,47.72292715106586],[-117.03142981653936,48.99930919045899],[-116.04823401575418,49.00036855732097],[-115.96779964889187,47.95048432066312],[-115.70427568241946,47.68484162046674],[-115.70479244674239,47.504930121442584],[-115.51906734908539,47.345120754579966],[-115.28833207890217,47.250397854188975],[-115.12164974654473,47.09536855731335],[-114.8433204822207,46.7863176539918],[-114.58561011438114,46.64133942319695],[-114.28451738163254,46.6318051214391],[-114.39404557987515,46.41008738869081],[-114.4914298165292,46.14708018654133],[-114.40727474654187,45.88991242124082],[-114.52370174849547,45.825368557308266],[-114.5136506824147,45.56923432065359],[-114.33531531457545,45.470273952814665],[-114.13793718143664,45.58933645281513],[-114.03579871301176,45.730103054378205],[-113.91410071496439,45.70258535418277],[-113.79449561242484,45.56499685320567],[-113.68021318241136,45.2490729843893],[-113.5029371814341,45.124222723972125],[-113.43942684614738,44.86279165300755],[-113.37857784712371,44.78977285417912],[-113.174843512813,44.76543325456966],[-113.05208614790365,44.61991242123574],[-112.87481014692638,44.3600833196722],[-112.69014441613137,44.4987311875113],[-112.36259335004932,44.46222178809708],[-112.33613501671589,44.56063955339695],[-111.77149247927873,44.49821442318837],[-111.54238501671271,44.53048635515465],[-111.4000164457486,44.72892385515544],[-111.29154761436796,44.701406154960026],[-111.19418921593007,44.56115631771988],[-111.08517778201036,44.506146755545174],[-111.04972774945814,44.48816335710761]]]}},{"type":"Feature","properties":{"region":"AZ","name":"Arizona","country":"US","source":"Natural Earth"},"geometry":{"type":"Polygon","coordinates":[[[-109.04522477907244,36.999912421205295],[-109.04367281021746,31.34189913731541],[-111.02378618044753,31.33465098726333],[-113.30501644575611,32.03897492118551],[-114.81474341516332,32.52527598726806],[-114.72139,32.72083],[-114.58984758182902,32.7162979192351],[-114.47977678104735,32.91633738863692],[-114.6559934151627,33.05390005139793],[-114.6914434477149,33.20368419039579],[-114.74330074751975,33.379874986294965],[-114.54855811242783,33.6095250514],[-114.46918311242757,34.067274888641464],[-114.16597164595498,34.27258535413716],[-114.35490068241404,34.464666652966],[-114.48453101281825,34.653053086886075],[-114.5670841134044,34.82821035413929],[-114.62211951379533,34.963680121392485],[-114.64222164595685,35.05310618747359],[-114.58085588261031,35.24942495375046],[-114.63005184615207,35.4452269557043],[-114.65069658085275,35.63891022393415],[-114.65017981652977,35.85427175551058],[-114.73960588261087,35.99131765394867],[-114.67134131555338,36.11461762139703],[-114.46073401574779,36.11461762139703],[-114.26916948124182,36.043691718076445],[-114.13264034712671,36.00400421807626],[-114.06649451379315,36.15642385512115],[-114.023628913207,36.18975515394948],[-114.03052771691796,36.994098822572425],[-112.41760291222397,37.00942088474699],[-110.4962214831798,37.00732798923906],[-109.04522477907244,36.999912421205295]]]}},{"type":"Feature","properties":{"region":"CA","name":"California","country":"US","source":"Natural Earth"},"geometry":{"type":"Polygon","coordinates":[[[-114.35490068241404,34.464666652966],[-114.16597164595498,34.27258535413716],[-114.46918311242757,34.067274888641464],[-114.54855811242783,33.6095250514],[-114.74330074751975,33.379874986294965],[-114.6914434477149,33.20368419039579],[-114.6559934151627,33.05390005139793],[-114.47977678104735,32.91633738863692],[-114.58984758182902,32.7162979192351],[-114.72139,32.72083],[-115.99107988163934,32.61258331962517],[-117.12772884811523,32.535327053348965],[-117.29593769127388,33.046224615203755],[-117.944,33.621236431201226],[-118.41060227589759,33.740909223124504],[-118.51989482279981,34.02778157757575],[-119.081,34.078],[-119.43884064201677,34.348477178284156],[-120.36781612204385,34.44722585706751],[-120.6228651536203,34.60861135511499],[-120.74458898988388,35.15682078708329],[-121.71455562400223,36.16172068943115],[-122.54745052146654,37.55181671808242],[-122.51200048891434,37.78361135512762],[-122.95331722068698,38.11379791925668],[-123.72696508852863,38.95147288670779],[-123.86507035382857,39.76692698827361],[-124.39795772362243,40.31301768651804],[-124.17887548892094,41.14224355728959],[-124.21380875715033,41.99947805436335],[-119.9989755865605,41.99260508886846],[-120.00003495342247,38.99539785415601],[-118.11461951380932,37.64442088474959],[-116.3207496814453,36.32204682061666],[-114.64222164595685,35.05310618747359],[-114.62211951379533,34.963680121392485],[-114.5670841134044,34.82821035413929],[-114.48453101281825,34.653053086886075],[-114.35490068241404,34.464666652966]]]}},{"type":"Feature","properties":{"region":"NV","name":"Nevada","country":"US","source":"Natural Earth"},"geometry":{"type":"Polygon","coordinates":[[[-114.03052771691799,36.994098822572425],[-114.023628913207,36.189755153949406],[-114.06649451379312,36.15642385512115],[-114.13264034712672,36.004004218076275],[-114.26916948124185,36.04369171807643],[-114.46073401574782,36.11461762139703],[-114.67134131555335,36.11461762139703],[-114.73960588261092,35.99131765394861],[-114.65017981652983,35.85427175551057],[-114.65069658085275,35.63891022393419],[-114.63005184615216,35.44522695570424],[-114.58085588261028,35.249424953750335],[-114.64222164595688,35.0531061874735],[-116.32074968144536,36.322046820616606],[-118.11461951380932,37.64442088474949],[-120.00003495342257,38.99539785415594],[-119.99897558656059,41.99260508886846],[-117.0282517159534,41.997359320639305],[-117.0282517159534,42.000020656902336],[-114.03422258182684,41.99312185319137],[-114.03052771691799,36.994098822572425]]]}},{"type":"Feature","properties":{"region":"MO","name":"Missouri","country":"US","source":"Natural Earth"},"geometry":{"type":"Polygon","coordinates":[[[-94.61750077999136,36.99991242120525],[-94.62279761430128,36.99991242120525],[-94.6153820462674,38.06883942316266],[-94.60481421586371,39.13985932062788],[-94.86779557979705,39.23458222101888],[-94.99109554724546,39.44467275650149],[-95.06729244665982,39.53991242121542],[-94.92655168331291,39.72512075454949],[-94.95510291215416,39.87012482356049],[-95.08530168331355,39.86800608983651],[-95.32288408077542,40.00135712336569],[-95.45254024939575,40.21514252375718],[-95.60811214881042,40.3431708847603],[-95.77637061235276,40.50140412043801],[-95.79649858273045,40.58395722102428],[-94.89849138057842,40.583440456701354],[-94.00208614782744,40.58501658788626],[-92.85166541214576,40.59243215592015],[-91.75842464879503,40.61411041926658],[-91.56740271682813,40.45220815689615],[-91.43033098017392,40.3685956894479],[-91.51763831253103,40.119877020827104],[-91.42821224644996,39.82090302180248],[-91.2625892809545,39.615049953767794],[-91.0715673489876,39.445189520824414],[-90.84137468134344,39.31077912043325],[-90.74928727899933,39.265278021800256],[-90.66570064976722,39.074772854156265],[-90.64981014683747,38.907547919259756],[-90.53552771682399,38.865767523751785],[-90.3465986803649,38.93031138768433],[-90.1560935127209,38.76944265395973],[-90.2127308825128,38.584776923164725],[-90.30533504917983,38.439256089830806],[-90.36987891311239,38.26355622003844],[-90.22807878290348,38.11328115493366],[-90.03015804722561,37.97199778904769],[-89.91690914585797,37.968277085922665],[-89.65498714878662,37.74867808689835],[-89.5539080472237,37.71904165297896],[-89.47928727899424,37.477221788069144],[-89.51633928094752,37.32692088474823],[-89.38828508172826,37.08140615492954],[-89.28033301467053,37.107347723940066],[-89.10305701369326,36.952292588848294],[-89.13426957879756,36.85175608982445],[-89.115226813498,36.694582221008716],[-89.27397681349862,36.61151235609954],[-89.49835588250994,36.5061957870887],[-89.52427161330432,36.40935415297372],[-89.585120612328,36.26701142022576],[-89.66291948114342,36.02307282159197],[-90.31538611526061,36.02307282159197],[-90.25399451369786,36.12254995375383],[-90.14180497919222,36.23050202081156],[-90.02909868036363,36.337937323546356],[-90.11219438348897,36.461754055317684],[-91.25147884801174,36.52314565688043],[-92.30717668330243,36.523662421203355],[-93.41258724645789,36.52629791925024],[-94.62861121293412,36.54058645277894],[-94.61750077999136,36.99991242120525]]]}},{"type":"Feature","properties":{"region":"LA","name":"Louisiana","country":"US","source":"Natural Earth"},"geometry":{"type":"Polygon","coordinates":[[[-89.21767,29.29108],[-89.4083872138898,29.159770819611367],[-89.77928,29.30714],[-90.15463,29.11743],[-90.880225,29.14853],[-91.62678,29.677000000000135],[-92.49906,29.5523],[-93.22637,29.78375000000011],[-93.84842,29.71363],[-93.91847368037912,29.821771755486566],[-93.81687781449335,29.96835195568235],[-93.66711951371155,30.10064362234965],[-93.66448401566464,30.300140489212254],[-93.73750281449298,30.3668030868688],[-93.65019548213593,30.60547068940889],[-93.5861683825263,30.713939520789552],[-93.48984351273424,31.079601955686883],[-93.57823605016944,31.216131089801934],[-93.69412044958403,31.443662421183035],[-93.7793090482171,31.67543122001223],[-93.83486121293095,31.829943752564816],[-93.9989080472414,31.942650051393343],[-94.05975704626513,33.01211965588982],[-93.09402787959465,33.01051768648881],[-92.00130388056687,33.043874823533145],[-91.15623918329783,33.01000092216589],[-91.08479651565432,32.95284678805103],[-91.17579871292025,32.80838532157918],[-91.03082048212548,32.60253225354444],[-91.0720841133105,32.47871552177321],[-90.94297054722921,32.30673635510567],[-91.08161841506836,32.20459788668086],[-91.12817888056327,32.01569468843792],[-91.32131954625419,31.859580186484266],[-91.41128821487433,31.6500322535407],[-91.50229041214038,31.40872915295381],[-91.62453101272678,31.29708222098708],[-91.58378414586463,31.04733002372052],[-90.70166744664232,31.015574856077194],[-89.75921851271931,31.01345612235326],[-89.78779557977674,30.847290554318647],[-89.8539414131103,30.683243720008136],[-89.79045691603972,30.556791490189937],[-89.65868201369545,30.440881252559336],[-89.62323198114325,30.27525828706382],[-89.60470598016661,30.17629791922485],[-89.41373,29.89419],[-89.43,29.48864],[-89.21767,29.29108]]]}},{"type":"Feature","properties":{"region":"FL","name":"Florida","country":"US","source":"Natural Earth"},"geometry":{"type":"Polygon","coordinates":[[[-80.05653928497765,26.88],[-80.08801,26.205765],[-80.13155999999987,25.81677500000012],[-80.38103,25.20616],[-80.67979855011788,25.07991649016799],[-81.17191321483341,25.201097723892417],[-81.33012061229499,25.639753119402087],[-81.71007158072098,25.869945787046277],[-82.23978084992882,26.729841620383013],[-82.70515,27.49504],[-82.85526,27.88624],[-82.64988501659712,28.55016978608029],[-82.9299999999999,29.100000000000136],[-83.70959,29.9365600000001],[-84.0997965156264,30.090049953729817],[-85.10882,29.6361500000001],[-85.28784,29.68612000000013],[-85.7731,30.15261],[-86.40006954623453,30.40016022391336],[-87.53038814975463,30.274198920201854],[-87.4578861152491,30.411270656856118],[-87.40496944858228,30.60864878999479],[-87.63304338250248,30.851528021766683],[-87.61715287957264,30.927724921181095],[-87.04566321485686,30.984879055295778],[-85.00519344759601,30.990692653928704],[-84.85331641309023,30.721355088823486],[-83.84789974641967,30.675311387651334],[-82.22600908072292,30.52555308686948],[-82.15193091503261,30.35093842215514],[-82.02281734895132,30.440364488236412],[-82.02015601268835,30.78801768647986],[-81.8995173815029,30.82189158784729],[-81.70159664582513,30.748330186479848],[-81.49047258169657,30.729830023719217],[-81.31371,30.035520000000133],[-80.97983191600446,29.179898789989068],[-80.53558,28.47213],[-80.53004024933603,28.04007172292728],[-80.05653928497765,26.88]]]}},{"type":"Feature","properties":{"region":"IL","name":"Illinois","country":"US","source":"Natural Earth"},"geometry":{"type":"Polygon","coordinates":[[[-90.64081844761868,42.50536448828457],[-89.62005388055731,42.50536448828457],[-88.5765516832875,42.50324575456061],[-87.80659868035474,42.49425405534181],[-87.80659868035474,42.4968895533887],[-87.48964128289253,42.49531342220381],[-87.039307013685,42.492652085940776],[-87.084808112318,42.30956248633066],[-87.13033504916714,42.12701548925962],[-87.17583614780014,41.94390005143336],[-87.22133724643314,41.76083629003941],[-87.37163814975403,41.76083629003941],[-87.52085384799682,41.76083629003941],[-87.52137061231974,41.70843638769544],[-87.52615068230674,41.70843638769544],[-87.52721004916873,40.55008331965696],[-87.52826941603071,39.39227285415754],[-87.64203508172127,39.1139435898335],[-87.55999874545792,39.040382188466026],[-87.50708207879104,38.86946238866065],[-87.51504024936399,38.73505198826949],[-87.59865271681224,38.6742029892458],[-87.6711289131016,38.508580023750355],[-87.87855811232117,38.29055715591093],[-88.01880794956132,38.02173635512861],[-88.05107988152758,37.81960399021895],[-88.04420691603278,37.744983221989486],[-88.15742997918427,37.605818589827464],[-88.0717246162282,37.51161245375938],[-88.24739864780442,37.43859365493097],[-88.47387061232357,37.35498118748272],[-88.43524247918538,37.13644155532039],[-88.5664747789906,37.05388845473412],[-88.80777787957749,37.14649262140115],[-89.07396318231294,37.20046865493002],[-89.14168514683143,37.10362702081504],[-89.10305701369326,36.952292588848294],[-89.28033301467053,37.107347723940066],[-89.38828508172826,37.08140615492954],[-89.51633928094752,37.32692088474823],[-89.47928727899424,37.477221788069144],[-89.5539080472237,37.71904165297896],[-89.65498714878662,37.74867808689835],[-89.91690914585797,37.968277085922665],[-90.03015804722561,37.97199778904769],[-90.22807878290348,38.11328115493366],[-90.36987891311239,38.26355622003844],[-90.30533504917983,38.439256089830806],[-90.2127308825128,38.584776923164725],[-90.1560935127209,38.76944265395973],[-90.3465986803649,38.93031138768433],[-90.53552771682399,38.865767523751785],[-90.64981014683747,38.907547919259756],[-90.66570064976722,39.074772854156265],[-90.74928727899933,39.265278021800256],[-90.84137468134344,39.31077912043325],[-91.0715673489876,39.445189520824414],[-91.2625892809545,39.615049953767794],[-91.42821224644996,39.82090302180248],[-91.51763831253103,40.119877020827104],[-91.43033098017392,40.3685956894479],[-91.4102288480124,40.55114268651894],[-91.15412044957387,40.699841620438804],[-91.0874320137012,40.85171865494462],[-90.95674231643505,41.024757188473956],[-90.9990653144821,41.17981232356573],[-91.12342464879248,41.25758535416499],[-91.0339985827114,41.42956452083234],[-90.69055701369962,41.47878632259035],[-90.46196631545651,41.53645722102809],[-90.39527787958384,41.60841665299452],[-90.21006954624977,41.8349144557298],[-90.15663611525997,42.103735256512124],[-90.2598081123307,42.18998322200727],[-90.41698198114644,42.27041758886956],[-90.46460181350339,42.37836965592729],[-90.58260494664188,42.4291675888702],[-90.64081844761868,42.50536448828457]]]}},{"type":"Feature","properties":{"region":"IN","name":"Indiana","country":"US","source":"Natural Earth"},"geometry":{"type":"Polygon","coordinates":[[[-84.80675594759535,41.67774058691407],[-84.8099340481813,40.77286041926722],[-84.8178663805381,39.79974152277896],[-84.82367997917093,39.10652802179962],[-84.88137671582481,39.05942495376557],[-84.79988298210053,38.85517385513195],[-84.84326534700955,38.78109568944154],[-85.01154964876804,38.77949372004049],[-85.16763831250564,38.6911270208214],[-85.4041871813217,38.72711965591269],[-85.42589128288428,38.53503835708379],[-85.5666320462312,38.46199372003923],[-85.69840694857547,38.290014553371876],[-85.83969031446145,38.25880198826758],[-86.05983191602483,37.960887356104934],[-86.26250688347356,38.04661855727716],[-86.32547461622121,38.16937592218649],[-86.49957251661253,37.969879055323716],[-86.61016008171714,37.85874888768005],[-86.82552161329352,37.97623525649561],[-87.05571428093768,37.88096975356555],[-87.13139441602912,37.78361135512766],[-87.43936011427255,37.9360051539564],[-87.65366227898694,37.82647695571377],[-87.91137264682652,37.90424998631303],[-87.92142371290728,37.793662421208424],[-88.05107988152758,37.81960399021895],[-88.01880794956132,38.02173635512861],[-87.87855811232117,38.29055715591093],[-87.6711289131016,38.508580023750355],[-87.59865271681224,38.6742029892458],[-87.51504024936399,38.73505198826949],[-87.50708207879104,38.86946238866065],[-87.55999874545792,39.040382188466026],[-87.64203508172127,39.1139435898335],[-87.52826941603071,39.39227285415754],[-87.52721004916873,40.55008331965696],[-87.52615068230674,41.70843638769544],[-87.52137061231974,41.76083629003941],[-87.22133724643314,41.76083629003941],[-86.91812577996056,41.76083629003941],[-86.82446224643155,41.76083629003941],[-86.82446224643155,41.7560562200524],[-85.7481455146564,41.751301988281554],[-84.80729855013442,41.7560562200524],[-84.80675594759535,41.67774058691407]]]}},{"type":"Feature","properties":{"region":"TN","name":"Tennessee","country":"US","source":"Natural Earth"},"geometry":{"type":"Polygon","coordinates":[[[-81.6793757799396,36.58557078708901],[-81.70477474641106,36.46015208591663],[-81.6936643134683,36.317292588845746],[-81.89739864777903,36.273910223936724],[-82.0513944160088,36.10614268650116],[-82.22389034699907,36.125728054339774],[-82.59324764680524,35.93734162041976],[-82.6742246162066,36.02519155531594],[-82.92557878287428,35.889721788062786],[-82.92028194856437,35.817219753557296],[-83.11078711620834,35.73732798923406],[-83.20972164583114,35.64896129001495],[-83.43833818229038,35.56268748630367],[-83.67328508170539,35.51666962334775],[-83.87596004915412,35.490211290014315],[-84.01776017936302,35.36900421807373],[-84.08708411328257,35.26159475355507],[-84.29875077995008,35.19862702080742],[-84.32097164583558,34.98696035413991],[-84.8543757799523,34.97690928805915],[-85.62538814974705,34.98590098727793],[-86.90967668328085,34.99913015394465],[-88.16696428094212,34.999672756483704],[-89.26392574741786,35.02135101983015],[-90.249240281927,35.02083425550724],[-90.13493201369738,35.11395518649719],[-90.14710181350213,35.40499685316502],[-89.98889441604055,35.536229152970236],[-89.95026628290238,35.70187795668183],[-89.77510901564906,35.79923635511972],[-89.67351314976325,35.94000295668279],[-89.66291948114342,36.02307282159197],[-89.585120612328,36.26701142022576],[-89.52427161330432,36.40935415297372],[-89.49835588250994,36.5061957870887],[-88.06960588250422,36.4972040878699],[-88.07278398309018,36.654377956685636],[-87.87434648308938,36.65649669040961],[-87.84204871290697,36.61096975356047],[-87.21658301466228,36.63900421807881],[-86.67788204623565,36.63373322198504],[-86.09262061231402,36.62577505141209],[-85.51901221387423,36.59774058689375],[-85.23114864779235,36.60991038669849],[-84.35009131543205,36.567044786112376],[-83.67328508170539,36.59985932061771],[-82.18632158072288,36.565985419250396],[-81.6793757799396,36.58557078708901]]]}},{"type":"Feature","properties":{"region":"DE","name":"Delaware","country":"US","source":"Natural Earth"},"geometry":{"type":"Polygon","coordinates":[[[-75.3198673163725,38.95994782160369],[-75.07183476478986,38.78203223017931],[-75.04838517932711,38.44876455337254],[-75.71462358265006,38.44930715591158],[-75.78764238147852,39.72354462336466],[-75.71090287952501,39.80237702082593],[-75.62096004912104,39.847361355135945],[-75.40557267932849,39.795504055331094],[-75.55427161324837,39.69124685318229],[-75.527813279915,39.49864879003036],[-75.3198673163725,38.95994782160369]]]}},{"type":"Feature","properties":{"region":"NJ","name":"New Jersey","country":"US","source":"Natural Earth"},"geometry":{"type":"Polygon","coordinates":[[[-73.91279557971325,40.96018748632537],[-73.95232,40.75075],[-74.25675391304787,40.473369655919726],[-73.96244,40.42763],[-74.17843827990953,39.70925608983589],[-74.90604244657914,38.939303086903124],[-74.9806632148086,39.19649669041985],[-75.2002622138329,39.2483539902247],[-75.527813279915,39.49864879003036],[-75.55427161324837,39.69124685318229],[-75.40557267932849,39.795504055331094],[-75.200804816372,39.88704885513607],[-75.12881954618945,39.949499823560814],[-74.89175391305048,40.08179149022811],[-74.76318294950823,40.19077708593164],[-75.07802161324645,40.44954682063326],[-75.09548824736112,40.555380153966894],[-75.20395707874178,40.58661855728735],[-75.19920284697093,40.74746145279573],[-75.08225908069448,40.8697020533823],[-75.1357183499004,40.999874986325494],[-74.97590898303775,41.087724921221536],[-74.80126848010735,41.31156138769393],[-74.67902787952096,41.35548635514192],[-73.91279557971325,40.96018748632537]]]}},{"type":"Feature","properties":{"region":"PA","name":"Pennsylvania","country":"US","source":"Natural Earth"},"geometry":{"type":"Polygon","coordinates":[[[-74.89175391305048,40.08179149022811],[-75.12881954618945,39.949499823560814],[-75.200804816372,39.88704885513607],[-75.40557267932849,39.795504055331094],[-75.62096004912104,39.847361355135945],[-75.71090287952501,39.80237702082593],[-75.78764238147852,39.72354462336466],[-76.66818294951588,39.720883287101685],[-77.5232987128656,39.72566335708859],[-78.23291948109767,39.72140005142455],[-78.54990271677599,39.71982392023972],[-79.47752051463135,39.720883287101685],[-80.51892981639327,39.720883287101685],[-80.51892981639327,40.641111355139174],[-80.5162684801303,42.32439362239842],[-80.5162684801303,42.324910386721456],[-80.24744767934794,42.36619985612248],[-79.77263759837729,42.54627476529765],[-79.76008724640326,42.50006765397467],[-79.76008724640326,42.00002065690239],[-78.20064754913136,42.00002065690239],[-76.74383724639114,42.00053742122532],[-75.38547054716696,41.99896129004043],[-75.1679902818666,41.84178742122464],[-75.04892778186621,41.751301988281625],[-75.07538611519954,41.6412311874999],[-75.01081641305097,41.49571035416608],[-74.84043921578461,41.42638642024633],[-74.67902787952096,41.35548635514192],[-74.80126848010735,41.31156138769393],[-74.97590898303775,41.087724921221536],[-75.1357183499004,40.999874986325494],[-75.08225908069448,40.8697020533823],[-75.19920284697093,40.74746145279573],[-75.20395707874178,40.58661855728735],[-75.09548824736106,40.555380153966894],[-75.07802161324645,40.44954682063326],[-74.76318294950823,40.19077708593164],[-74.89175391305048,40.08179149022811]]]}},{"type":"Feature","properties":{"region":"AB","name":"Alberta","country":"CA","source":"Government of Alberta"},"geometry":{"type":"Polygon","coordinates":[[[-114.6387,49.7177],[-114.6709,49.693],[-114.6677,49.6376],[-114.7534,49.6096],[-114.6954,49.5477],[-114.5724,49.5573],[-114.5911,49.3964],[-114.4874,49.3471],[-114.4471,49.2642],[-114.3802,49.2494],[-114.3979,49.2099],[-114.1621,49.1555],[-114.1516,49.0974],[-114.0625,49.0462],[-114.0682,48.9989],[-110.0051,48.9996],[-110.0064,59.9996],[-120.0014,60.0005],[-120.0013,53.7987],[-119.8887,53.7764],[-119.9122,53.7116],[-119.7927,53.7033],[-119.7165,53.6123],[-119.7703,53.59],[-119.9218,53.6145],[-119.8619,53.5532],[-119.9012,53.5166],[-119.785,53.4915],[-119.7671,53.4294],[-119.681,53.3702],[-119.391,53.3594],[-119.2611,53.1766],[-119.1479,53.1911],[-119.0274,53.1238],[-118.9933,53.2053],[-119.0258,53.2233],[-118.9832,53.2421],[-118.7934,53.1621],[-118.729,53.1127],[-118.7782,53.0464],[-118.6571,53.0345],[-118.6402,52.9987],[-118.6729,52.9784],[-118.6106,52.9356],[-118.6155,52.8813],[-118.4984,52.9061],[-118.4526,52.8869],[-118.4541,52.8559],[-118.3842,52.8472],[-118.4189,52.7738],[-118.3285,52.7379],[-118.3445,52.7096],[-118.2884,52.679],[-118.3567,52.6152],[-118.272,52.5646],[-118.2906,52.5392],[-118.2632,52.5046],[-118.1984,52.4851],[-118.2525,52.4439],[-118.2159,52.3717],[-118.1389,52.4061],[-118.0454,52.4023],[-118.0341,52.4378],[-118.0601,52.4557],[-118.0181,52.4591],[-117.9919,52.5001],[-117.893,52.4278],[-117.7219,52.3898],[-117.7048,52.3564],[-117.8444,52.2728],[-117.8146,52.2228],[-117.7325,52.1875],[-117.6628,52.1985],[-117.5604,52.127],[-117.5084,52.1579],[-117.3515,52.1359],[-117.3171,52.1874],[-117.3058,52.074],[-117.2153,52.028],[-117.2344,52.0106],[-117.1966,51.9788],[-117.104,51.9574],[-117.0122,51.8902],[-117.035,51.8558],[-116.9804,51.8349],[-116.9768,51.7601],[-116.9208,51.7094],[-116.8101,51.7046],[-116.8206,51.7372],[-116.7483,51.8055],[-116.6603,51.8048],[-116.6517,51.7537],[-116.5853,51.7134],[-116.5962,51.6627],[-116.5016,51.6275],[-116.466,51.565],[-116.3915,51.5463],[-116.3618,51.4713],[-116.2857,51.4571],[-116.3118,51.3842],[-116.2692,51.3123],[-116.1638,51.2975],[-116.1545,51.2632],[-116.008,51.2217],[-115.9999,51.1943],[-116.0364,51.1697],[-116.0098,51.126],[-115.924,51.083],[-115.7542,51.0744],[-115.7689,51.0393],[-115.6503,50.9984],[-115.5624,50.8942],[-115.6498,50.8739],[-115.6423,50.8401],[-115.5757,50.8395],[-115.4824,50.7556],[-115.4373,50.7561],[-115.4153,50.7117],[-115.3146,50.7246],[-115.2757,50.6486],[-115.3125,50.6287],[-115.2402,50.5889],[-115.2098,50.5281],[-115.1576,50.5733],[-115.0171,50.5832],[-114.8617,50.425],[-114.8663,50.3965],[-114.7697,50.3593],[-114.8013,50.3299],[-114.7546,50.2964],[-114.7712,50.2501],[-114.7256,50.1893],[-114.7354,50.121],[-114.663,50.0657],[-114.6515,49.9759],[-114.683,49.9663],[-114.692,49.8961],[-114.6399,49.8267],[-114.6595,49.7641],[-114.6387,49.7177]]]}}]}
